NUSHSAT1                
1 63211U 25052B   26068.64700493  .00023034  00000+0  74857-3 0  9997
2 63211  97.4095 325.7239 0005501  84.7512 275.4357 15.31903202 54882
STARLINK-34946          
1 65367U 25190S   26068.55727287  .00031212  00000+0  10622-2 0  9990
2 65367  53.1587 168.8874 0001216 110.0643 250.0488 15.30179100 29730
