[{"OBJECT_NAME":"NUSHSAT1","OBJECT_ID":"2025-052B","EPOCH":"2026-03-09T15:31:41.225952","MEAN_MOTION":15.31903202,"ECCENTRICITY":0.0005501,"INCLINATION":97.4095,"RA_OF_ASC_NODE":325.7239,"ARG_OF_PERICENTER":84.7512,"MEAN_ANOMALY":275.4357,"EPHEMERIS_TYPE":0,"CLASSIFICATION_TYPE":"U","NORAD_CAT_ID":63211,"ELEMENT_SET_NO":999,"REV_AT_EPOCH":5488,"BSTAR":0.00074857,"MEAN_MOTION_DOT":0.00023034,"MEAN_MOTION_DDOT":0},{"OBJECT_NAME":"STARLINK-34946","OBJECT_ID":"2025-190S","EPOCH":"2026-03-09T13:22:28.375968","MEAN_MOTION":15.301791,"ECCENTRICITY":0.0001216,"INCLINATION":53.1587,"RA_OF_ASC_NODE":168.8874,"ARG_OF_PERICENTER":110.0643,"MEAN_ANOMALY":250.0488,"EPHEMERIS_TYPE":0,"CLASSIFICATION_TYPE":"U","NORAD_CAT_ID":65367,"ELEMENT_SET_NO":999,"REV_AT_EPOCH":2973,"BSTAR":0.0010622,"MEAN_MOTION_DOT":0.00031212,"MEAN_MOTION_DDOT":0}]
